NORAD_CAT_ID,OBJECT_NAME,OBJECT_TYPE,EPOCH,MEAN_MOTION,ECCENTRICITY,INCLINATION,RA_OF_ASC_NODE,ARG_OF_PERICENTER,MEAN_ANOMALY,BSTAR,MEAN_MOTION_DOT,MEAN_MOTION_DDOT,TLE_LINE0,TLE_LINE1,TLE_LINE2,SEMIMAJOR_AXIS,PERIOD,APOGEE,PERIGEE,DECAYED
53181.0,STARLINK-4273,PAYLOAD,2022-07-21 18:00:00,15.89551278,0.0037891999999999,53.2173,26.5825,50.6244,54.2635,-0.0041073,-0.01310944,0.00048886,0 STARLINK-4273,1 53181U 22083BB  22202.75001157 -.01310944  48886-3 -41073-2 0  9995,2 53181  53.2173  26.5825 0037892  50.6244  54.2635 15.89551278  1309,6681.677,90.592,328.86,278.224,0.0
53181.0,STARLINK-4273,PAYLOAD,2022-07-22 06:00:00,15.882322699999998,0.0031731,53.2177,24.0489,51.6736,34.9168,-0.0044727,-0.01308818,0.00048146,0 STARLINK-4273,1 53181U 22083BB  22203.25001157 -.01308818  48146-3 -44727-2 0  9996,2 53181  53.2177  24.0489 0031731  51.6736  34.9168 15.88232270  1375,6685.376,90.667,328.454,286.028,0.0
53181.0,STARLINK-4273,PAYLOAD,2022-07-22 12:00:00,15.87573233,0.0029028,53.2177,22.784,51.0474,25.5026,-0.0046556,-0.0130838,0.00047826,0 STARLINK-4273,1 53181U 22083BB  22203.50001157 -.01308380  47826-3 -46556-2 0  9994,2 53181  53.2177  22.7840 0029028  51.0474  25.5026 15.87573233  1410,6687.226,90.704,328.5030000000001,289.6790000000001,0.0
53181.0,STARLINK-4273,PAYLOAD,2022-07-22 20:00:01,15.86721089,0.0025583,53.2175,21.1024,49.9563,132.2719,-0.0051071999999999,-0.01363909,0.0005119,0 STARLINK-4273,1 53181U 22083BB  22203.83334491 -.01363909  51190-3 -51072-2 0  9996,2 53181  53.2175  21.1024 0025583  49.9563 132.2719 15.86721089  1476,6689.62,90.753,328.599,294.371,0.0
53181.0,STARLINK-4273,PAYLOAD,2022-07-22 22:00:00,15.86510543,0.0024111,53.2174,20.6821,50.6566,247.8257,-0.0052553,-0.01384406,0.00052502,0 STARLINK-4273,1 53181U 22083BB  22203.91667824 -.01384406  52502-3 -52553-2 0  9992,2 53181  53.2174  20.6821 0024111  50.6566 247.8257 15.86510543  1305,6690.212,90.765,328.208,295.946,0.0
53181.0,STARLINK-4273,PAYLOAD,2022-07-23 14:00:01,15.84731251,0.0018261,53.2177,17.32,50.0813,96.1569,-0.0055957,-0.01182279,0.0,0 STARLINK-4273,1 53181U 22083BB  22204.58335648 -.01182279  00000-0 -55957-2 0  9990,2 53181  53.2177  17.3200 0018261  50.0813  96.1569 15.84731251  1300,6695.219,90.867,329.31,304.857,0.0
53181.0,STARLINK-4273,PAYLOAD,2022-07-23 22:00:00,15.83875856,0.0015089,53.2176,15.645,50.6113,197.8083,-0.0060733,-0.01241903,0.0,0 STARLINK-4273,1 53181U 22083BB  22204.91667824 -.01241903  00000-0 -60733-2 0  9999,2 53181  53.2176  15.6450 0015089  50.6113 197.8083 15.83875856  1300,6697.629,90.916,329.6,309.388,0.0
53181.0,STARLINK-4273,PAYLOAD,2022-07-24 14:00:01,15.82087483,0.0008420999999999,53.2175,12.2963,38.9845,50.7914,-0.0063354,-0.01185464,0.0,0 STARLINK-4273,1 53181U 22083BB  22205.58334491 -.01185464  00000-0 -63354-2 0  9995,2 53181  53.2175  12.2963 0008421  38.9845  50.7914 15.82087483  1742,6702.675,91.019,330.185,318.896,0.0
53181.0,STARLINK-4273,PAYLOAD,2022-07-24 22:00:00,15.81224425,0.0005984,53.2173,10.6276,31.8155,157.0421,-0.0067664,-0.01209925,0.0,0 STARLINK-4273,1 53181U 22083BB  22205.91667824 -.01209925  00000-0 -67664-2 0  9998,2 53181  53.2173  10.6276 0005984  31.8155 157.0421 15.81224425  1300,6705.114000000001,91.069,330.991,322.967,0.0
53181.0,STARLINK-4273,PAYLOAD,2022-07-25 06:00:00,15.80354,0.0004065999999999,53.2175,8.9574,11.8511,275.0373,-0.0071446,-0.01223233,0.0,0 STARLINK-4273,1 53181U 22083BB  22206.25001157 -.01223233  00000-0 -71446-2 0  9998,2 53181  53.2175   8.9574 0004066  11.8511 275.0373 15.80354000  1856,6707.576,91.119,332.168,326.713,0.0
53181.0,STARLINK-4273,PAYLOAD,2022-07-25 14:00:01,15.794689600000002,0.0003935,53.2178,7.2919,359.7385,24.1278,-0.0073691999999999,-0.01212389,0.0,0 STARLINK-4273,1 53181U 22083BB  22206.58334491 -.01212389  00000-0 -73692-2 0  9999,2 53181  53.2178   7.2919 0003935 359.7385  24.1278 15.79468960  1307,6710.081,91.17,334.587,329.306,0.0
53181.0,STARLINK-4273,PAYLOAD,2022-07-25 22:00:00,15.78584825,0.0003733,53.2173,5.6295,3.5983,116.1889,-0.0076055,-0.01202673,0.0,0 STARLINK-4273,1 53181U 22083BB  22206.91667824 -.01202673  00000-0 -76055-2 0  9996,2 53181  53.2173   5.6295 0003733   3.5983 116.1889 15.78584825  1303,6712.5859999999975,91.221,336.957,331.946,0.0
53181.0,STARLINK-4273,PAYLOAD,2022-07-26 06:00:00,15.77709939,0.0003839,53.2174,3.9657,1.911,212.7401,-0.0079591,-0.01208879,0.0,0 STARLINK-4273,1 53181U 22083BB  22207.25001157 -.01208879  00000-0 -79591-2 0  9997,2 53181  53.2174   3.9657 0003839   1.9110 212.7401 15.77709939  2014,6715.068,91.272,339.511,334.355,0.0
53181.0,STARLINK-4273,PAYLOAD,2022-07-26 14:00:01,15.76828357,0.0004238,53.2174,2.3071,347.9717,320.4876,-0.0082429,-0.01204188,0.0,0 STARLINK-4273,1 53181U 22083BB  22207.58334491 -.01204188  00000-0 -82429-2 0  9996,2 53181  53.2174   2.3071 0004238 347.9717 320.4876 15.76828357  1306,6717.57,91.323,342.282,336.589,0.0
53181.0,STARLINK-4273,PAYLOAD,2022-07-26 20:00:01,15.76173174,0.0004506,53.2174,1.0653,356.4113,291.7087,-0.0085341,-0.01210212,0.0,0 STARLINK-4273,1 53181U 22083BB  22207.83334491 -.01210212  00000-0 -85341-2 0  9995,2 53181  53.2174   1.0653 0004506 356.4113 291.7087 15.76173174  2104,6719.432,91.361,344.325,338.269,0.0
53181.0,STARLINK-4273,PAYLOAD,2022-07-26 22:00:00,15.75954378,0.000147,53.2171,0.6509999999999999,233.2123,167.9959,-0.0086214,-0.0120877,0.0,0 STARLINK-4273,1 53181U 22083BB  22207.91667824 -.01208770  00000-0 -86214-2 0  9999,2 53181  53.2171   0.6510 0001470 233.2123 167.9959 15.75954378  1303,6720.054,91.373,342.907,340.931,0.0
53181.0,STARLINK-4273,PAYLOAD,2022-07-27 14:00:01,15.74070637,0.0001433,53.2177,357.3417,53.9466,169.6211,-0.0066354,-0.00872855,0.0,0 STARLINK-4273,1 53181U 22083BB  22208.58334491 -.00872855  00000-0 -66354-2 0  9997,2 53181  53.2177 357.3417 0001433  53.9466 169.6211 15.74070637  2221,6725.4140000000025,91.483,348.24300000000005,346.315,0.0
53181.0,STARLINK-4273,PAYLOAD,2022-07-27 22:00:00,15.73300681,0.0001371,53.2172,355.6917,53.8924,259.2748,-0.001092,-0.00151795,0.0,0 STARLINK-4273,1 53181U 22083BB  22208.91667824 -.00151795  00000-0 -10920-2 0  9994,2 53181  53.2172 355.6917 0001371  53.8924 259.2748 15.73300681  2271,6727.608,91.527,350.395,348.551,0.0
53181.0,STARLINK-4273,PAYLOAD,2022-07-28 06:00:00,15.73284656,0.0001273,53.2176,354.0403,66.2508,335.8806,-0.0010054999999999,-0.00139918,0.0,0 STARLINK-4273,1 53181U 22083BB  22209.25001157 -.00139918  00000-0 -10055-2 0  9995,2 53181  53.2176 354.0403 0001273  66.2508 335.8806 15.73284656  2320,6727.654,91.528,350.375,348.662,0.0
53181.0,STARLINK-4273,PAYLOAD,2022-07-28 14:00:01,15.73300009,0.0001127,53.2184,352.3929,54.4926,76.6293,-0.00071075,-0.00099618,0.0,0 STARLINK-4273,1 53181U 22083BB  22209.58334491 -.00099618  00000-0 -71075-3 0  9993,2 53181  53.2184 352.3929 0001127  54.4926  76.6293 15.73300009  1302,6727.61,91.527,350.233,348.717,0.0
53181.0,STARLINK-4273,PAYLOAD,2022-07-28 22:00:00,15.73240757,0.0001176,53.2182,350.744,43.9392,176.1743,-0.00035691,-0.00050496,0.0,0 STARLINK-4273,1 53181U 22083BB  22209.91667824 -.00050496  00000-0 -35691-3 0  9994,2 53181  53.2182 350.7440 0001176  43.9392 176.1743 15.73240757  2438,6727.779,91.531,350.435,348.853,0.0
53181.0,STARLINK-4273,PAYLOAD,2022-07-29 14:00:01,15.73219847,0.0001398,53.2188,347.4445,52.8363,345.1247,-0.00025083,-0.00035703,0.0,0 STARLINK-4273,1 53181U 22083BB  22210.58334491 -.00035703  00000-0 -25083-3 0  9998,2 53181  53.2188 347.4445 0001398  52.8363 345.1247 15.73219847  1303,6727.839,91.532,350.644,348.76300000000015,0.0
53181.0,STARLINK-4273,PAYLOAD,2022-07-29 22:00:00,15.73193265,0.0001561999999999,53.2183,345.7956,50.1794,76.7231,-0.00026192,-0.00037207,0.0,0 STARLINK-4273,1 53181U 22083BB  22210.91667824 -.00037207  00000-0 -26192-3 0  9997,2 53181  53.2183 345.7956 0001562  50.1794  76.7231 15.73193265  2595,6727.9140000000025,91.534,350.83,348.728,0.0
53181.0,STARLINK-4273,PAYLOAD,2022-07-30 14:00:01,15.73203296,0.0001587,53.2173,342.4946,52.7471,251.9417,1.4965e-05,1.4800000000000002e-05,0.0,0 STARLINK-4273,1 53181U 22083BB  22211.58334491  .00001480  00000-0  14965-4 0  9990,2 53181  53.2173 342.4946 0001587  52.7471 251.9417 15.73203296  2694,6727.886,91.533,350.8180000000001,348.68300000000005,0.0
53181.0,STARLINK-4273,PAYLOAD,2022-07-30 22:00:00,15.73238516,0.0001343,53.2185,340.8475,35.2217,358.5076,-0.00021157,-0.00030255,0.0,0 STARLINK-4273,1 53181U 22083BB  22211.91667824 -.00030255  00000-0 -21157-3 0  9990,2 53181  53.2185 340.8475 0001343  35.2217 358.5076 15.73238516  2744,6727.785,91.531,350.55400000000014,348.747,0.0
53181.0,STARLINK-4273,PAYLOAD,2022-07-31 14:00:01,15.7321706,0.0001463,53.219,337.5484,43.1801,168.4188,-0.00034608,-0.00048944,0.0,0 STARLINK-4273,1 53181U 22083BB  22212.58334491 -.00048944  00000-0 -34608-3 0  9994,2 53181  53.2190 337.5484 0001463  43.1801 168.4188 15.73217060  1307,6727.847,91.532,350.696,348.727,0.0
53181.0,STARLINK-4273,PAYLOAD,2022-07-31 22:00:00,15.73174875,0.0001433,53.2185,335.8991,34.4631,266.0626,-0.000149,-0.00021455,0.0,0 STARLINK-4273,1 53181U 22083BB  22212.91667824 -.00021455  00000-0 -14900-3 0  9991,2 53181  53.2185 335.8991 0001433  34.4631 266.0626 15.73174875  1304,6727.967,91.535,350.796,348.86800000000005,0.0
53181.0,STARLINK-4273,PAYLOAD,2022-08-01 04:00:00,15.73139805,0.000123,53.2186,334.6608,37.7084,239.4939,0.00045983,0.00064242,0.0,0 STARLINK-4273,1 53181U 22083BB  22213.16667824  .00064242  00000-0  45983-3 0  9993,2 53181  53.2186 334.6608 0001230  37.7084 239.4939 15.73139805  2946,6728.066999999999,91.537,350.759,349.10400000000016,0.0
53181.0,STARLINK-4273,PAYLOAD,2022-08-01 14:00:01,15.73198302,0.0001405,53.2185,332.6008,34.6554,83.6591,2.8616e-05,3.397e-05,0.0,0 STARLINK-4273,1 53181U 22083BB  22213.58334491  .00003397  00000-0  28616-4 0  9999,2 53181  53.2185 332.6008 0001405  34.6554  83.6591 15.73198302  1308,6727.9,91.533,350.71,348.82,0.0
